ACS3                    
1 59588U 24077B   24229.16244937  .00000132  00000+0  18945-3 0  9995
2 59588  97.4022 283.4025 0018836 291.8276  68.0871 13.67698358 15604
